{
  "type": "FeatureCollection",
  "features": [
    {
      "type": "Feature",
      "properties": {
        "norad_id": 66744,
        "name": "TRANSPORTER-15 CG",
        "group": "last-30-days",
        "lat": 27.314434036777754,
        "lon": -109.55980180275203,
        "alt_km": 513.1794179402523,
        "timestamp": "2025-12-20T22:39:09.407145+00:00",
        "meta_object_name": "TRANSPORTER-15 CG",
        "meta_object_id": "2025-276CG",
        "meta_epoch": "2025-12-20T14:04:10.309152",
        "meta_mean_motion": 15.17311589,
        "meta_eccentricity": 0.00015155,
        "meta_inclination": 97.4424,
        "meta_ra_of_asc_node": 66.2178,
        "meta_arg_of_pericenter": 256.8671,
        "meta_mean_anomaly": 103.2393,
        "meta_ephemeris_type": 0,
        "meta_classification_type": "U",
        "meta_norad_cat_id": 66744,
        "meta_element_set_no": 999,
        "meta_rev_at_epoch": 331,
        "meta_bstar": 0.0002721099,
        "meta_mean_motion_dot": 5.359e-05,
        "meta_mean_motion_ddot": 0,
        "tle_line1": "1 66744U 25276CG  25354.58623043  .00005359  00000+0  27211-3 0  9996",
        "tle_line2": "2 66744  97.4424  66.2178 0001515 256.8671 103.2393 15.17311589  3315"
      },
      "geometry": {
        "type": "Point",
        "coordinates": [
          -109.55980180275203,
          27.314434036777754
        ]
      }
    },
    {
      "type": "Feature",
      "properties": {
        "norad_id": 66745,
        "name": "TRANSPORTER-15 CH",
        "group": "last-30-days",
        "lat": 21.583597835717992,
        "lon": -110.46844754699465,
        "alt_km": 513.9219009501539,
        "timestamp": "2025-12-20T22:39:09.407154+00:00",
        "meta_object_name": "TRANSPORTER-15 CH",
        "meta_object_id": "2025-276CH",
        "meta_epoch": "2025-12-20T14:02:41.331840",
        "meta_mean_motion": 15.17412798,
        "meta_eccentricity": 5.561e-05,
        "meta_inclination": 97.4429,
        "meta_ra_of_asc_node": 66.2147,
        "meta_arg_of_pericenter": 329.0361,
        "meta_mean_anomaly": 31.084,
        "meta_ephemeris_type": 0,
        "meta_classification_type": "U",
        "meta_norad_cat_id": 66745,
        "meta_element_set_no": 999,
        "meta_rev_at_epoch": 331,
        "meta_bstar": 0.00050413272,
        "meta_mean_motion_dot": 0.00010019,
        "meta_mean_motion_ddot": 0,
        "tle_line1": "1 66745U 25276CH  25354.58520060  .00010019  00000+0  50413-3 0  9991",
        "tle_line2": "2 66745  97.4429  66.2147 0000556 329.0361  31.0840 15.17412798  3319"
      },
      "geometry": {
        "type": "Point",
        "coordinates": [
          -110.46844754699465,
          21.583597835717992
        ]
      }
    },
    {
      "type": "Feature",
      "properties": {
        "norad_id": 66746,
        "name": "TRANSPORTER-15 CJ",
        "group": "last-30-days",
        "lat": 19.671996768963094,
        "lon": -110.75472757647458,
        "alt_km": 513.5793049977292,
        "timestamp": "2025-12-20T22:39:09.407164+00:00",
        "meta_object_name": "TRANSPORTER-15 CJ",
        "meta_object_id": "2025-276CJ",
        "meta_epoch": "2025-12-19T04:48:03.204576",
        "meta_mean_motion": 15.17416472,
        "meta_eccentricity": 9.628e-05,
        "meta_inclination": 97.4422,
        "meta_ra_of_asc_node": 64.8535,
        "meta_arg_of_pericenter": 234.0891,
        "meta_mean_anomaly": 126.0254,
        "meta_ephemeris_type": 0,
        "meta_classification_type": "U",
        "meta_norad_cat_id": 66746,
        "meta_element_set_no": 999,
        "meta_rev_at_epoch": 310,
        "meta_bstar": 0.00013979791,
        "meta_mean_motion_dot": 2.728e-05,
        "meta_mean_motion_ddot": 0,
        "tle_line1": "1 66746U 25276CJ  25353.20003709  .00002728  00000+0  13980-3 0  9992",
        "tle_line2": "2 66746  97.4422  64.8535 0000962 234.0891 126.0254 15.17416472  3106"
      },
      "geometry": {
        "type": "Point",
        "coordinates": [
          -110.75472757647458,
          19.671996768963094
        ]
      }
    },
    {
      "type": "Feature",
      "properties": {
        "norad_id": 66747,
        "name": "W-SERIES 5",
        "group": "last-30-days",
        "lat": 12.620910915983767,
        "lon": -111.75178173077467,
        "alt_km": 512.2902511835791,
        "timestamp": "2025-12-20T22:39:09.407174+00:00",
        "meta_object_name": "W-SERIES 5",
        "meta_object_id": "2025-276CK",
        "meta_epoch": "2025-12-20T14:00:20.146464",
        "meta_mean_motion": 15.17543534,
        "meta_eccentricity": 0.00043447,
        "meta_inclination": 97.442,
        "meta_ra_of_asc_node": 66.217,
        "meta_arg_of_pericenter": 209.868,
        "meta_mean_anomaly": 150.2307,
        "meta_ephemeris_type": 0,
        "meta_classification_type": "U",
        "meta_norad_cat_id": 66747,
        "meta_element_set_no": 999,
        "meta_rev_at_epoch": 331,
        "meta_bstar": 0.00072616712,
        "meta_mean_motion_dot": 0.00014527,
        "meta_mean_motion_ddot": 0,
        "tle_line1": "1 66747U 25276CK  25354.58356651  .00014527  00000+0  72617-3 0  9994",
        "tle_line2": "2 66747  97.4420  66.2170 0004344 209.8680 150.2307 15.17543534  3311"
      },
      "geometry": {
        "type": "Point",
        "coordinates": [
          -111.75178173077467,
          12.620910915983767
        ]
      }
    },
    {
      "type": "Feature",
      "properties": {
        "norad_id": 66748,
        "name": "TRANSPORTER-15 CL",
        "group": "last-30-days",
        "lat": -27.949405988749913,
        "lon": -117.39054515930547,
        "alt_km": 515.3299243424535,
        "timestamp": "2025-12-20T22:39:09.407203+00:00",
        "meta_object_name": "TRANSPORTER-15 CL",
        "meta_object_id": "2025-276CL",
        "meta_epoch": "2025-12-20T13:49:50.767392",
        "meta_mean_motion": 15.1840585,
        "meta_eccentricity": 0.00018824,
        "meta_inclination": 97.4415,
        "meta_ra_of_asc_node": 66.2244,
        "meta_arg_of_pericenter": 232.4002,
        "meta_mean_anomaly": 127.7062,
        "meta_ephemeris_type": 0,
        "meta_classification_type": "U",
        "meta_norad_cat_id": 66748,
        "meta_element_set_no": 999,
        "meta_rev_at_epoch": 331,
        "meta_bstar": 0.00059210503,
        "meta_mean_motion_dot": 0.00012124,
        "meta_mean_motion_ddot": 0,
        "tle_line1": "1 66748U 25276CL  25354.57628203  .00012124  00000+0  59211-3 0  9995",
        "tle_line2": "2 66748  97.4415  66.2244 0001882 232.4002 127.7062 15.18405850  3318"
      },
      "geometry": {
        "type": "Point",
        "coordinates": [
          -117.39054515930547,
          -27.949405988749913
        ]
      }
    },
    {
      "type": "Feature",
      "properties": {
        "norad_id": 66749,
        "name": "TRANSPORTER-15 CM",
        "group": "last-30-days",
        "lat": -7.710137007985815,
        "lon": -114.43909449341534,
        "alt_km": 515.2609096873075,
        "timestamp": "2025-12-20T22:39:09.407226+00:00",
        "meta_object_name": "TRANSPORTER-15 CM",
        "meta_object_id": "2025-276CM",
        "meta_epoch": "2025-12-20T12:20:06.657216",
        "meta_mean_motion": 15.17839756,
        "meta_eccentricity": 0.00016596,
        "meta_inclination": 97.441,
        "meta_ra_of_asc_node": 66.1522,
        "meta_arg_of_pericenter": 198.4606,
        "meta_mean_anomaly": 161.6568,
        "meta_ephemeris_type": 0,
        "meta_classification_type": "U",
        "meta_norad_cat_id": 66749,
        "meta_element_set_no": 999,
        "meta_rev_at_epoch": 330,
        "meta_bstar": 0.00026285983,
        "meta_mean_motion_dot": 5.253e-05,
        "meta_mean_motion_ddot": 0,
        "tle_line1": "1 66749U 25276CM  25354.51396594  .00005253  00000+0  26286-3 0  9996",
        "tle_line2": "2 66749  97.4410  66.1522 0001659 198.4606 161.6568 15.17839756  3307"
      },
      "geometry": {
        "type": "Point",
        "coordinates": [
          -114.43909449341534,
          -7.710137007985815
        ]
      }
    },
    {
      "type": "Feature",
      "properties": {
        "norad_id": 66750,
        "name": "TRANSPORTER-15 CN",
        "group": "last-30-days",
        "lat": -23.40839286875434,
        "lon": -116.64965002058307,
        "alt_km": 516.532259607483,
        "timestamp": "2025-12-20T22:39:09.407238+00:00",
        "meta_object_name": "TRANSPORTER-15 CN",
        "meta_object_id": "2025-276CN",
        "meta_epoch": "2025-12-20T13:50:55.856832",
        "meta_mean_motion": 15.18007801,
        "meta_eccentricity": 0.00019237,
        "meta_inclination": 97.4448,
        "meta_ra_of_asc_node": 66.2347,
        "meta_arg_of_pericenter": 155.9304,
        "meta_mean_anomaly": 204.202,
        "meta_ephemeris_type": 0,
        "meta_classification_type": "U",
        "meta_norad_cat_id": 66750,
        "meta_element_set_no": 999,
        "meta_rev_at_epoch": 331,
        "meta_bstar": 0.00028514193,
        "meta_mean_motion_dot": 5.733e-05,
        "meta_mean_motion_ddot": 0,
        "tle_line1": "1 66750U 25276CN  25354.57703538  .00005733  00000+0  28514-3 0  9993",
        "tle_line2": "2 66750  97.4448  66.2347 0001923 155.9304 204.2020 15.18007801  3310"
      },
      "geometry": {
        "type": "Point",
        "coordinates": [
          -116.64965002058307,
          -23.40839286875434
        ]
      }
    }
  ]
}